EUTELSAT QUANTUM        
1 49056U 21069B   25320.46043515  .00000137  00000+0  00000+0 0  9991
2 49056   0.0545  76.8492 0003038 175.7701  16.6363  1.00272621 15796
EUTELSAT KONNECT VHTS   
1 53765U 22110A   25320.36989078  .00000028  00000+0  00000+0 0  9992
2 53765   0.0545  99.8296 0002553 114.8259 336.9415  1.00270418  4693
EUTELSAT HOTBIRD 13F    
1 54048U 22134A   25320.36433565  .00000098  00000+0  00000+0 0  9995
2 54048   0.0533 288.3676 0002257  71.7236 199.7554  1.00271731 11246
EUTELSAT HOTBIRD 13G    
1 54225U 22146A   25319.74009020  .00000096  00000+0  00000+0 0  9998
2 54225   0.0457 239.5011 0001974 299.8049 155.2212  1.00272429  5324
EUTELSAT 10B            
1 54259U 22157A   25320.36433565  .00000079  00000+0  00000+0 0  9993
2 54259   0.0550  97.8029 0000867  45.5474  53.4867  1.00271041 10899
EUTELSAT 36D            
1 59346U 24059A   25320.45800847  .00000000  00000+0  00000+0 0  9993
2 59346   0.0206 288.8480 0000418  57.9445 269.7119  1.00270551  6015
